UMBRA-10                
1 60547U 24149CH  26200.22404626  .00007597  00000+0  36721-3 0  9997
2 60547  97.6968 288.0294 0001936 159.0759 201.0554 15.18918547105593
ICEYE-X33               
1 60548U 24149CJ  26200.23661159  .00002507  00000+0  20161-3 0  9992
2 60548  97.7374 279.2190 0001852  70.3156 289.8267 15.00905522105018
ICEYE-X40               
1 60549U 24149CK  26200.16466511  .00001515  00000+0  13296-3 0  9999
2 60549  97.6807 276.1467 0003706 353.5814   6.5360 14.98089888104863
SATELIOT_1              
1 60550U 24149CL  26200.22010473  .00001336  00000+0  11752-3 0  9996
2 60550  97.6734 275.5846 0005216 340.8924  19.2102 14.98172993104862
BRO-14                  
1 60551U 24149CM  26200.16250294  .00000991  00000+0  92860-4 0  9993
2 60551  97.6864 275.3652 0006431   6.2131 353.9169 14.96243700104777
SATELIOT_3              
1 60552U 24149CN  26200.46318213  .00000525  00000+0  49180-4 0  9993
2 60552  97.6809 276.6467 0004626 346.5902  13.5196 14.98168032104916
BRO-15                  
1 60553U 24149CP  26200.61336853  .00000595  00000+0  57763-4 0  9994
2 60553  97.6789 275.3794 0007242 350.2515   9.8564 14.96225479104859
UM5-RIBAT               
1 60554U 24149CQ  26200.20073159  .00001052  00000+0  86586-4 0  9991
2 60554  97.6598 277.5660 0000409 293.5293  66.5888 15.01227533104998
UM5-EOSAT               
1 60555U 24149CR  26200.48984484  .00001668  00000+0  13272-3 0  9998
2 60555  97.6778 278.8661 0008944  24.3560 335.8086 15.01744279105065
LASARSAT                
1 62391U 24247Q   26199.93291523  .00020905  00000+0  39367-3 0  9997
2 62391  44.9739  83.5637 0007976 189.9528 170.1206 15.48202624 88234
CROCUBE                 
1 62394U 24247T   26199.95347644  .00024965  00000+0  43401-3 0  9992
2 62394  44.9710  80.2241 0008147 196.1185 163.9448 15.50381393 88277
TEVEL2-4                
1 63213U 25052D   26200.64250594  .00010253  00000+0  29789-3 0  9992
2 63213  97.3853  97.1061 0003169  43.0133 317.1358 15.35661719 75092
TEVEL2-5                
1 63214U 25052E   26200.60165346  .00010499  00000+0  30684-3 0  9997
2 63214  97.3852  97.0033 0003191  45.3967 314.7537 15.35471509 75082
TEVEL2-6                
1 63215U 25052F   26200.15853610  .00009478  00000+0  27766-3 0  9998
2 63215  97.3857  96.5439 0003317  47.9788 312.1737 15.35425857 75013
TEVEL2-1                
1 63217U 25052H   26200.45987699  .00009640  00000+0  28744-3 0  9996
2 63217  97.3828  96.4310 0003918  51.1832 308.9761 15.34859218 75048
TEVEL2-3                
1 63218U 25052J   26200.25768580  .00009570  00000+0  28485-3 0  9995
2 63218  97.3840  96.2545 0003742  52.6845 307.4739 15.34918835 75013
TEVEL2-2                
1 63219U 25052K   26200.52516782  .00009775  00000+0  29131-3 0  9997
2 63219  97.3830  96.4993 0003972  51.2578 308.9020 15.34871976 75052
TEVEL2-9                
1 63237U 25052AD  26200.21882993  .00008721  00000+0  27749-3 0  9996
2 63237  97.3893  95.4966 0007321  45.4826 314.7014 15.32806992 74931
TEVEL2-7                
1 63238U 25052AE  26200.46202924  .00008616  00000+0  27686-3 0  9997
2 63238  97.3895  95.6412 0007412  45.1189 315.0654 15.32492190 74960
TEVEL2-8                
1 63239U 25052AF  26200.20940773  .00008420  00000+0  27078-3 0  9999
2 63239  97.3897  95.3655 0007477  46.6510 313.5354 15.32473641 74920
FORESAIL-1 PRIME        
1 66778U 25276DS  26200.14685383  .00002359  00000+0  11613-3 0  9997
2 66778  97.4184 272.8360 0002556  36.0771 324.0635 15.18956984 35253
